STARLINK-36408          
1 67473U 26008AE  26187.25273563  .00023862  00000+0  87490-3 0  9991
2 67473  43.0024 255.7393 0001494 275.0030  85.0651 15.27540929 27706
ALSAT-3A                
1 67474U 26009A   26187.56771270  .00005017  00000+0  21109-3 0  9992
2 67474  97.4534 261.3177 0014254  51.7053 308.5464 15.23752435 26225
TIANQI-37               
1 67476U 26010A   26186.88408788  .00000077  00000+0  14090-3 0  9993
2 67476  44.9831 358.5486 0011413  56.1865 304.0053 13.99171791 24011
TIANQI-38               
1 67477U 26010B   26187.50927975  .00000056  00000+0  12681-3 0  9999
2 67477  44.9796 355.5344 0010085  66.6956 293.4938 13.99167381 24106
TIANQI-39               
1 67478U 26010C   26180.57179164  .00000023  00000+0  10159-3 0  9991
2 67478  44.9816  22.6279 0013885  45.6434 314.5534 14.00833067 23186
TIANQI-40               
1 67479U 26010D   26187.47378148  .00000070  00000+0  13627-3 0  9996
2 67479  44.9839 356.1272 0010082  73.4502 286.7438 13.99154845 24092
SZ-20 MODULE            
1 67481U 25082C   26187.42232663  .00026744  00000+0  21667-3 0  9992
2 67481  41.4755 197.7202 0011138 142.3126 217.8499 15.70071498296251
2025-313BE              
1 67482U 25313BE  26187.17669994  .00256370  00000+0  33070-2 0  9993
2 67482  97.3845 265.2947 0010407 245.6102 114.4068 15.58072355 26229
ION SCV-021             
1 67483U 25276DT  26187.15454669  .00001632  00000+0  14426-3 0  9995
2 67483  97.5249 256.9139 0012912  62.4263 297.8270 14.97601693 25445
STARLINK-36551          
1 67493U 26012A   26187.47125993  .00019488  00000+0  71594-3 0  9992
2 67493  43.0053   3.9687 0001783 266.3784  93.6864 15.27574779 25922
STARLINK-36396          
1 67494U 26012B   26186.92889257  .00040405  00000+0  14715-2 0  9996
2 67494  43.0035   6.7984 0002164 342.4030  17.6746 15.27541412 25842
STARLINK-36550          
1 67495U 26012C   26187.46354760 -.00050133  00000+0 -18284-2 0  9999
2 67495  43.0041   3.9125 0003269 136.1087 224.0025 15.27505805 25922
STARLINK-36534          
1 67496U 26012D   26186.86863914  .00020127  00000+0  73981-3 0  9993
2 67496  43.0018   7.1846 0001455 266.9244  93.1441 15.27540821 25839
STARLINK-36555          
1 67497U 26012E   26186.87121203  .00017754  00000+0  65305-3 0  9996
2 67497  43.0023   7.2022 0001554 275.6607  84.4068 15.27583761 25831
STARLINK-36081          
1 67498U 26012F   26186.86477954  .00033991  00000+0  12395-2 0  9994
2 67498  43.0011   7.1614 0002220 280.4778  79.5824 15.27567965 25832
STARLINK-36558          
1 67499U 26012G   26187.51480173  .00016068  00000+0  59244-3 0  9996
2 67499  43.0008   3.4393 0002872 286.0512  74.0023 15.27561595 25938
STARLINK-36557          
1 67500U 26012H   26186.85708198  .00029679  00000+0  10845-2 0  9990
2 67500  42.9974   7.0886 0000603  96.2054 263.8866 15.27556662 25831
STARLINK-36433          
1 67501U 26012J   26187.50709150  .00022324  00000+0  81873-3 0  9993
2 67501  43.0012   3.3671 0001133 271.8706  88.2015 15.27563100 25933
STARLINK-36554          
1 67502U 26012K   26187.50065579  .00020883  00000+0  76624-3 0  9990
2 67502  43.0009   3.3186 0001744 259.6077 100.4578 15.27580659 25933
STARLINK-36552          
1 67503U 26012L   26187.49681366  .00024387  00000+0  89317-3 0  9993
2 67503  43.0026   3.2846 0001416 260.3928  99.6764 15.27566774 25933
STARLINK-36512          
1 67504U 26012M   26187.48908469  .00071317  00000+0  25719-2 0  9999
2 67504  43.0042   3.2260 0001675 293.5937  66.4739 15.27634940 25932
STARLINK-36545          
1 67505U 26012N   26187.48524540  .00026084  00000+0  95414-3 0  9995
2 67505  43.0033   3.1971 0001606 268.8086  91.2581 15.27576148 25931
STARLINK-36553          
1 67506U 26012P   26187.48138993  .00016901  00000+0  62257-3 0  9995
2 67506  43.0061   3.1671 0002057 276.4011  83.6606 15.27564551 25932
STARLINK-36521          
1 67507U 26012Q   26187.47879791  .00030645  00000+0  11175-2 0  9996
2 67507  43.0043   3.1445 0001611 252.4859 107.5816 15.27609347 25933
STARLINK-36526          
1 67508U 26012R   26187.47494436  .00025758  00000+0  94194-3 0  9998
2 67508  43.0039   3.1166 0001275 288.9002  71.1711 15.27592143 25934
STARLINK-36541          
1 67509U 26012S   26186.94687672  .00017002  00000+0  62666-3 0  9998
2 67509  43.0032   6.9252 0002194 254.2521 105.8089 15.27540985 25848
STARLINK-36549          
1 67510U 26012T   26187.47624149  .00028692  00000+0  10469-2 0  9999
2 67510  43.0025   3.1062 0001362 226.6486 133.4252 15.27619131 25938
STARLINK-36540          
1 67511U 26012U   26187.46612002  .00031346  00000+0  11441-2 0  9995
2 67511  43.0048   3.9379 0002425 270.2406  89.8168 15.27569101 25921
STARLINK-36538          
1 67512U 26012V   26186.93788191  .00011597  00000+0  43082-3 0  9993
2 67512  43.0033   6.8343 0001224 261.5932  98.4781 15.27538541 25844
STARLINK-36531          
1 67513U 26012W   26186.86221286  .00025035  00000+0  91674-3 0  9995
2 67513  43.0004   7.1264 0000685 289.2392  70.8385 15.27560408 25836
STARLINK-36530          
1 67514U 26012X   26186.85835453  .00021406  00000+0  78600-3 0  9994
2 67514  43.0045   7.1021 0002660 283.4298  76.6258 15.27542775 25839
STARLINK-36543          
1 67515U 26012Y   26187.50837065  .00020617  00000+0  75686-3 0  9993
2 67515  43.0005   3.3784 0001707 259.3378 100.7281 15.27569558 25936
STARLINK-36537          
1 67516U 26012Z   26187.49809440  .00014656  00000+0  54132-3 0  9997
2 67516  43.0014   3.2894 0001673 225.5718 134.4997 15.27564049 25931
STARLINK-36544          
1 67517U 26012AA  26187.50451227  .00015386  00000+0  56725-3 0  9997
2 67517  43.0030   3.3425 0001913 267.0277  93.0356 15.27592560 25937
STARLINK-36412          
1 67518U 26012AB  26186.96342622  .00017955  00000+0  66088-3 0  9992
2 67518  43.0048   6.1547 0001814 276.6958  83.3687 15.27556246 25856
STARLINK-36415          
1 67519U 26012AC  26187.48267569  .00020699  00000+0  76012-3 0  9994
2 67519  43.0051   3.1649 0001500 273.8455  86.2225 15.27557291 25934
STARLINK-36547          
1 67520U 26012AD  26187.49038396  .00015552  00000+0  57380-3 0  9990
2 67520  43.0034   3.2308 0001877 266.8921  93.1716 15.27560656 25938
STARLINK-36444          
1 67521U 26012AE  26186.97114358  .00019292  00000+0  70950-3 0  9999
2 67521  43.0016   6.2177 0002085 292.3325  67.7305 15.27544918 25855
HULIANWANG DIGUI-146    
1 67522U 26013A   26187.32970719 -.00000080  00000+0  94687-4 0  9992
2 67522  50.0083 287.2492 0001292 185.8539 174.2318 13.29324499 22597
HULIANWANG DIGUI-147    
1 67523U 26013B   26187.32124564 -.00000080  00000+0  94513-4 0  9990
2 67523  50.0054 287.1596 0001193 186.9329 173.1527 13.29332622 22596
HULIANWANG DIGUI-148    
1 67524U 26013C   26187.31285148 -.00000081  00000+0  91750-4 0  9997
2 67524  50.0094 287.1758 0001244 186.4923 173.5933 13.29333330 22595
HULIANWANG DIGUI-149    
1 67525U 26013D   26187.30465732 -.00000085  00000+0  84155-4 0  9991
2 67525  50.0087 287.1249 0001450 187.3488 172.7363 13.29330913 22590
HULIANWANG DIGUI-150    
1 67526U 26013E   26186.98722257 -.00000086  00000+0  82748-4 0  9990
2 67526  50.0058 288.0613 0001257 185.4606 174.6253 13.29328914 22575
HULIANWANG DIGUI-151    
1 67527U 26013F   26187.29626978 -.00000107  00000+0  35999-4 0  9999
2 67527  50.0100 287.0885 0001316 184.3715 175.7146 13.29329727 22597
HULIANWANG DIGUI-152    
1 67528U 26013G   26186.97882404 -.00000076  00000+0  10377-3 0  9999
2 67528  50.0044 288.0076 0001242 185.6271 174.4587 13.29331843 22550
HULIANWANG DIGUI-153    
1 67529U 26013H   26186.82014609 -.00000089  00000+0  76461-4 0  9999
2 67529  50.0046 288.5064 0001241 186.2608 173.8249 13.29325144 22527
HULIANWANG DIGUI-154    
1 67530U 26013J   26187.26282035 -.00000079  00000+0  97827-4 0  9998
2 67530  50.0070 286.8824 0001213 185.8813 174.2045 13.29331651 22588
STARLINK-36587          
1 67532U 26014A   26187.23634407  .00016148  00000+0  50150-3 0  9992
2 67532  97.2845  73.7252 0002078 133.6189 226.5226 15.33438926 26955
STARLINK-36417          
1 67533U 26014B   26187.27441960  .00019244  00000+0  59709-3 0  9996
2 67533  97.2851  73.6729 0001954  79.9484 280.1979 15.33433466 26958
STARLINK-36576          
1 67534U 26014C   26187.26352275  .00022882  00000+0  70813-3 0  9997
2 67534  97.2853  73.6889 0001600  78.0293 282.1129 15.33482016 26958
STARLINK-36574          
1 67535U 26014D   26187.24451055  .00018707  00000+0  58057-3 0  9999
2 67535  97.2848  73.7140 0002603  73.5668 286.5861 15.33430082 26951
STARLINK-36572          
1 67536U 26014E   26187.26627000 -.00012370  00000+0 -38217-3 0  9995
2 67536  97.2852  73.6842 0002098 104.1580 255.9896 15.33383595 26951
STARLINK-36561          
1 67537U 26014F   26187.25810201  .00019974  00000+0  61952-3 0  9999
2 67537  97.2855  73.6930 0001498  84.3721 275.7693 15.33437939 26959
STARLINK-36397          
1 67538U 26014G   26187.24179083  .00016642  00000+0  51684-3 0  9995
2 67538  97.2842  73.7151 0001955  99.8884 260.2580 15.33433235 26950
STARLINK-36573          
1 67539U 26014H   26187.25538553  .00021525  00000+0  66725-3 0  9996
2 67539  97.2854  73.7000 0001599  82.2660 277.8764 15.33440825 26950
STARLINK-36585          
1 67540U 26014J   26187.31520155  .00018491  00000+0  57380-3 0  9999
2 67540  97.2854  73.7693 0001492  84.8991 275.2422 15.33438214 26960
STARLINK-36579          
1 67541U 26014K   26187.21731552  .00012999  00000+0  40449-3 0  9999
2 67541  97.2854  73.7503 0001725 104.5511 255.5924 15.33428080 26955
STARLINK-35934          
1 67542U 26014L   26187.22275084  .00014820  00000+0  46071-3 0  9996
2 67542  97.2829  73.7437 0002860  88.3082 271.8489 15.33426665 26940
STARLINK-36581          
1 67543U 26014M   26187.25266286  .00017974  00000+0  55787-3 0  9991
2 67543  97.2848  73.7027 0001194  86.4878 273.6502 15.33437723 26952
